STARLINK-34857          
1 65102U 25167AA  26068.17597304  .00025844  00000+0  88165-3 0  9996
2 65102  53.1599  28.8656 0001220  62.4752 297.6373 15.30200552 33404
KUIPER-00208            
1 67775U 26030M   26068.67231509  .00043852  00000+0  13883-2 0  9994
2 67775  51.8846 219.6993 0015525  57.3146 302.9333 15.32208734  5080
